[{"OBJECT_NAME":"STARLINK-36136","OBJECT_ID":"2025-288J","EPOCH":"2026-03-09T22:05:54.793248","MEAN_MOTION":15.27584821,"ECCENTRICITY":0.00013373,"INCLINATION":43.0033,"RA_OF_ASC_NODE":22.0707,"ARG_OF_PERICENTER":242.9607,"MEAN_ANOMALY":117.1108,"EPHEMERIS_TYPE":0,"CLASSIFICATION_TYPE":"U","NORAD_CAT_ID":66967,"ELEMENT_SET_NO":999,"REV_AT_EPOCH":1532,"BSTAR":0.001275511,"MEAN_MOTION_DOT":0.00035009,"MEAN_MOTION_DDOT":0},{"OBJECT_NAME":"CZ-6A DEB","OBJECT_ID":"2022-151ME","EPOCH":"2026-03-09T17:07:50.636064","MEAN_MOTION":15.20556855,"ECCENTRICITY":0.00283971,"INCLINATION":98.6182,"RA_OF_ASC_NODE":149.2426,"ARG_OF_PERICENTER":178.5587,"MEAN_ANOMALY":181.5732,"EPHEMERIS_TYPE":0,"CLASSIFICATION_TYPE":"U","NORAD_CAT_ID":54578,"ELEMENT_SET_NO":999,"REV_AT_EPOCH":10518,"BSTAR":0.0077423675,"MEAN_MOTION_DOT":0.00175116,"MEAN_MOTION_DDOT":0}]
